GLOBALSTAR M067         
1 32263U 07048A   25100.75910200 -.00000100  00000+0 -16046-4 0  9990
2 32263  51.9720 233.2318 0001311 166.1926 337.4613 12.40669931801110
GLOBALSTAR M070         
1 32264U 07048B   25100.90001481 -.00000035  00000+0  38308-3 0  9990
2 32264  51.9772 333.4886 0000739  68.8744 303.6777 12.62315938805175
GLOBALSTAR M066         
1 32265U 07048C   25100.72251671 -.00000097  00000+0 -51993-5 0  9995
2 32265  51.9639 220.8052 0001824 104.1593  39.1384 12.35252961806963
GLOBALSTAR M068         
1 32266U 07048D   25100.89861125  .00000017  00000+0  67179-3 0  9996
2 32266  51.9865 147.3750 0000746 358.6509 173.4691 12.62820733809052
GLOBALSTAR M079         
1 37188U 10054A   25100.70637317 -.00000072  00000+0  18010-3 0  9991
2 37188  52.0064 345.2090 0000949  98.3665 296.8057 12.62272857667938
GLOBALSTAR M074         
1 37189U 10054B   25100.82109050 -.00000068  00000+0  19811-3 0  9998
2 37189  52.0043 344.1945 0000585  88.0703 347.2391 12.62273714668552
GLOBALSTAR M076         
1 37190U 10054C   25100.84757904 -.00000072  00000+0  17666-3 0  9990
2 37190  52.0053 344.2749 0000709 107.8312 330.4353 12.62260678668278
GLOBALSTAR M077         
1 37191U 10054D   25100.92953622 -.00000073  00000+0  16896-3 0  9990
2 37191  52.0076 300.8660 0000807  96.7250  52.4021 12.62273178668654
